NORAD_CAT_ID,OBJECT_NAME,OBJECT_TYPE,EPOCH,MEAN_MOTION,ECCENTRICITY,INCLINATION,RA_OF_ASC_NODE,ARG_OF_PERICENTER,MEAN_ANOMALY,BSTAR,MEAN_MOTION_DOT,MEAN_MOTION_DDOT,TLE_LINE0,TLE_LINE1,TLE_LINE2,SEMIMAJOR_AXIS,PERIOD,APOGEE,PERIGEE,DECAYED
52299.0,STARLINK-3759,PAYLOAD,2023-04-13 10:33:50,15.0884208,0.0001671,53.2142,183.2522,97.2482,262.87,8.9291e-05,1.133e-05,0.0,0 STARLINK-3759,1 52299U 22041AQ  23103.44017321  .00001133  00000-0  89291-4 0  9998,2 52299  53.2142 183.2522 0001671  97.2482 262.8700 15.08842080 54297,6917.874,95.437,540.895,538.583,0.0
52299.0,STARLINK-3759,PAYLOAD,2023-04-13 12:09:14,15.08847941,0.0001554,53.2144,182.9569,77.281,282.8356,0.00023559,3.464e-05,0.0,0 STARLINK-3759,1 52299U 22041AQ  23103.50641253  .00003464  00000-0  23559-3 0  9995,2 52299  53.2144 182.9569 0001554  77.2810 282.8356 15.08847941 55526,6917.856,95.437,540.796,538.646,0.0
52299.0,STARLINK-3759,PAYLOAD,2023-04-14 05:38:29,15.08836693,0.0001549,53.2148,179.6851,93.5888,266.5281,0.00017064,2.429e-05,0.0,0 STARLINK-3759,1 52299U 22041AQ  23104.23505915  .00002429  00000-0  17064-3 0  9994,2 52299  53.2148 179.6851 0001549  93.5888 266.5281 15.08836693 55637,6917.89,95.438,540.827,538.684,0.0
52299.0,STARLINK-3759,PAYLOAD,2023-04-14 12:00:01,15.08842054,0.0001622,53.2157,178.4965,97.3812,262.7365,0.00026961,4.006e-05,0.0,0 STARLINK-3759,1 52299U 22041AQ  23104.50001829  .00004006  00000-0  26961-3 0  9998,2 52299  53.2157 178.4965 0001622  97.3812 262.7365 15.08842054 54459,6917.874,95.437,540.861,538.617,0.0
52299.0,STARLINK-3759,PAYLOAD,2023-04-15 10:15:25,15.08836387,0.0001521,53.2155,174.3335,95.6061,264.5105,5.7523e-05,6.28e-06,0.0,0 STARLINK-3759,1 52299U 22041AQ  23105.42738293  .00000628  00000-0  57523-4 0  9997,2 52299  53.2155 174.3335 0001521  95.6061 264.5105 15.08836387 55813,6917.891,95.438,540.809,538.704,0.0
52299.0,STARLINK-3759,PAYLOAD,2023-04-15 21:23:07,15.08841828,0.000132,53.2138,172.2506,90.5302,269.5841,0.0001376,1.903e-05,0.0,0 STARLINK-3759,1 52299U 22041AQ  23105.89106070  .00001903  00000-0  13760-3 0  9991,2 52299  53.2138 172.2506 0001320  90.5302 269.5841 15.08841828 54660,6917.875,95.437,540.653,538.827,0.0
52299.0,STARLINK-3759,PAYLOAD,2023-04-16 11:41:35,15.08846746,0.0001574,53.2153,169.5752,101.9421,258.1748,0.0002559,3.788e-05,0.0,0 STARLINK-3759,1 52299U 22041AQ  23106.48721980  .00003788  00000-0  25590-3 0  9997,2 52299  53.2153 169.5752 0001574 101.9421 258.1748 15.08846746 55978,6917.86,95.437,540.814,538.636,0.0
52299.0,STARLINK-3759,PAYLOAD,2023-04-16 21:13:54,15.0884203,0.0001376,53.2146,167.79,86.0981,274.0168,0.00014942,2.091e-05,0.0,0 STARLINK-3759,1 52299U 22041AQ  23106.88466151  .00002091  00000-0  14942-3 0  9992,2 52299  53.2146 167.7900 0001376  86.0981 274.0168 15.08842030 54816,6917.874,95.437,540.691,538.787,0.0
52299.0,STARLINK-3759,PAYLOAD,2023-04-17 03:35:27,15.08837942,0.0001777,53.216,166.6027,87.2248,272.8947,0.00010005,1.304e-05,0.0,0 STARLINK-3759,1 52299U 22041AQ  23107.14962564  .00001304  00000-0  10005-3 0  9993,2 52299  53.2160 166.6027 0001777  87.2248 272.8947 15.08837942 56071,6917.887,95.438,540.981,538.522,0.0
52299.0,STARLINK-3759,PAYLOAD,2023-04-17 13:07:46,15.08840844,0.0001528,53.2147,164.8164,86.3991,273.7176,7.8123e-05,9.56e-06,0.0,0 STARLINK-3759,1 52299U 22041AQ  23107.54706573  .00000956  00000-0  78123-4 0  9991,2 52299  53.2147 164.8164 0001528  86.3991 273.7176 15.08840844 54917,6917.878,95.438,540.8,538.686,0.0
52299.0,STARLINK-3759,PAYLOAD,2023-04-17 21:04:41,15.08846544,0.0001494,53.2142,163.3301,83.2476,276.8686,2.5046e-05,1.11e-06,0.0,0 STARLINK-3759,1 52299U 22041AQ  23107.87826248  .00000111  00000-0  25046-4 0  9998,2 52299  53.2142 163.3301 0001494  83.2476 276.8686 15.08846544 54963,6917.86,95.437,540.759,538.692,0.0
52299.0,STARLINK-3759,PAYLOAD,2023-04-18 09:47:47,15.08843564,0.0001349,53.2156,160.9521,70.3274,289.7863,7.9605e-05,9.79e-06,0.0,0 STARLINK-3759,1 52299U 22041AQ  23108.40818370  .00000979  00000-0  79605-4 0  9997,2 52299  53.2156 160.9521 0001349  70.3274 289.7863 15.08843564 55046,6917.869,95.437,540.668,538.801,0.0
52299.0,STARLINK-3759,PAYLOAD,2023-04-19 12:49:20,15.08841145,0.0001426,53.2135,155.8948,80.4998,279.6155,8.825e-05,1.117e-05,0.0,0 STARLINK-3759,1 52299U 22041AQ  23109.53426424  .00001117  00000-0  88250-4 0  9998,2 52299  53.2135 155.8948 0001426  80.4998 279.6155 15.08841145 56439,6917.877,95.437,540.728,538.755,0.0
52299.0,STARLINK-3759,PAYLOAD,2023-04-19 14:24:43,15.08844941,0.0001515,53.2144,155.5981,80.3926,279.7238,0.00011659,1.568e-05,0.0,0 STARLINK-3759,1 52299U 22041AQ  23109.60050128  .00001568  00000-0  11659-3 0  9998,2 52299  53.2144 155.5981 0001515  80.3926 279.7238 15.08844941 55228,6917.865,95.437,540.778,538.682,0.0
52299.0,STARLINK-3759,PAYLOAD,2023-04-20 12:40:07,15.08841303,0.0001554,53.2141,151.4331,87.1441,272.9729,4.3116e-05,3.98e-06,0.0,0 STARLINK-3759,1 52299U 22041AQ  23110.52786533  .00000398  00000-0  43116-4 0  9991,2 52299  53.2141 151.4331 0001554  87.1441 272.9729 15.08841303 55363,6917.876,95.437,540.816,538.666,0.0
52299.0,STARLINK-3759,PAYLOAD,2023-04-20 14:15:30,15.0884482,0.0001549,53.2144,151.1367,85.5491,274.5678,7.4702e-05,9.01e-06,0.0,0 STARLINK-3759,1 52299U 22041AQ  23110.59410217  .00000901  00000-0  74702-4 0  9996,2 52299  53.2144 151.1367 0001549  85.5491 274.5678 15.08844820 56597,6917.866,95.437,540.802,538.659,0.0
52299.0,STARLINK-3759,PAYLOAD,2023-04-21 02:58:36,15.08832581,0.000179,53.2153,148.7567,97.8013,262.3183,2.9986e-05,1.89e-06,0.0,0 STARLINK-3759,1 52299U 22041AQ  23111.12403307  .00000189  00000-0  29986-4 0  9990,2 52299  53.2153 148.7567 0001790  97.8013 262.3183 15.08832581 56671,6917.903,95.438,541.006,538.53,0.0
52299.0,STARLINK-3759,PAYLOAD,2023-04-21 09:20:08,15.08835271,0.0001889,53.2151,147.5685,87.4486,272.6722,6.5363e-05,7.52e-06,0.0,0 STARLINK-3759,1 52299U 22041AQ  23111.38899179  .00000752  00000-0  65363-4 0  9999,2 52299  53.2151 147.5685 0001889  87.4486 272.6722 15.08835271 55496,6917.895,95.438,541.067,538.453,0.0
52299.0,STARLINK-3759,PAYLOAD,2023-04-21 18:52:27,15.08840238,0.0001471,53.215,145.7845,83.7155,276.4005,1.6473e-05,-2.6e-07,0.0,0 STARLINK-3759,1 52299U 22041AQ  23111.78643011 -.00000026  00000-0  16473-4 0  9998,2 52299  53.2150 145.7845 0001471  83.7155 276.4005 15.08840238 55554,6917.88,95.438,540.762,538.727,0.0
52299.0,STARLINK-3759,PAYLOAD,2023-04-22 12:21:41,15.08851521,0.0001372,53.2148,142.5129,85.7328,274.3821,0.00014179,1.97e-05,0.0,0 STARLINK-3759,1 52299U 22041AQ  23112.51506021  .00001970  00000-0  14179-3 0  9997,2 52299  53.2148 142.5129 0001372  85.7328 274.3821 15.08851521 56882,6917.845,95.437,540.659,538.761,0.0
52299.0,STARLINK-3759,PAYLOAD,2023-04-22 18:43:14,15.08838023,0.0001274,53.2151,141.3247,88.9321,271.1817,-3.9515e-07,-2.94e-06,0.0,0 STARLINK-3759,1 52299U 22041AQ  23112.78003087 -.00000294  00000-0 -39515-6 0  9994,2 52299  53.2151 141.3247 0001274  88.9321 271.1817 15.08838023 56920,6917.886,95.438,540.633,538.87,0.0
52299.0,STARLINK-3759,PAYLOAD,2023-04-23 10:37:06,15.08833261,0.0001297,53.2149,138.3495,89.5758,270.5382,5.3469e-05,5.63e-06,0.0,0 STARLINK-3759,1 52299U 22041AQ  23113.44243701  .00000563  00000-0  53469-4 0  9996,2 52299  53.2149 138.3495 0001297  89.5758 270.5382 15.08833261 55809,6917.901,95.438,540.663,538.869,0.0
52299.0,STARLINK-3759,PAYLOAD,2023-04-23 18:34:01,15.08840756,0.0001343,53.2155,136.8625,88.0996,272.015,8.6247e-05,1.085e-05,0.0,0 STARLINK-3759,1 52299U 22041AQ  23113.77363263  .00001085  00000-0  86247-4 0  9998,2 52299  53.2155 136.8625 0001343  88.0996 272.0150 15.08840756 55856,6917.878,95.438,540.672,538.814,0.0
52299.0,STARLINK-3759,PAYLOAD,2023-04-24 02:30:56,15.08848324,0.0001318,53.2152,135.3747,91.1303,268.984,0.00014727,2.057e-05,0.0,0 STARLINK-3759,1 52299U 22041AQ  23114.10482608  .00002057  00000-0  14727-3 0  9994,2 52299  53.2152 135.3747 0001318  91.1303 268.9840 15.08848324 55906,6917.855,95.437,540.632,538.808,0.0
52299.0,STARLINK-3759,PAYLOAD,2023-04-25 10:18:40,15.08829806,0.0001222,53.2138,129.4291,77.0602,283.0526,-6.4497e-05,-1.314e-05,0.0,0 STARLINK-3759,1 52299U 22041AQ  23115.42963512 -.00001314  00000-0 -64497-4 0  9995,2 52299  53.2138 129.4291 0001222  77.0602 283.0526 15.08829806 57328,6917.912,95.438,540.622,538.931,0.0
52299.0,STARLINK-3759,PAYLOAD,2023-04-26 11:44:49,15.08883909,0.0001471,53.216,124.6707,104.7139,255.4016,-0.00064242,-0.0001051,0.0,0 STARLINK-3759,1 52299U 22041AQ  23116.48945781 -.00010510  00000-0 -64242-3 0  9995,2 52299  53.2160 124.6707 0001471 104.7139 255.4016 15.08883909 56264,6917.746,95.435,540.629,538.594,0.0
52299.0,STARLINK-3759,PAYLOAD,2023-04-26 18:06:23,15.08833202,0.0001289,53.216,123.4818,73.0469,287.0664,0.00020386,2.957e-05,0.0,0 STARLINK-3759,1 52299U 22041AQ  23116.75443543  .00002957  00000-0  20386-3 0  9999,2 52299  53.2160 123.4818 0001289  73.0469 287.0664 15.08833202 56301,6917.901,95.438,540.658,538.874,0.0
52299.0,STARLINK-3759,PAYLOAD,2023-04-27 11:35:37,15.0884621,0.0001279,53.2162,120.2103,74.1981,285.9152,0.00027013,4.015e-05,0.0,0 STARLINK-3759,1 52299U 22041AQ  23117.48307075  .00004015  00000-0  27013-3 0  9990,2 52299  53.2162 120.2103 0001279  74.1981 285.9152 15.08846210 56419,6917.861,95.437,540.611,538.842,0.0
52299.0,STARLINK-3759,PAYLOAD,2023-04-28 06:40:15,15.08845673,0.0001308,53.2153,116.6431,75.3538,284.7599,0.00012203,1.655e-05,0.0,0 STARLINK-3759,1 52299U 22041AQ  23118.27795337  .00001655  00000-0  12203-3 0  9992,2 52299  53.2153 116.6431 0001308  75.3538 284.7599 15.08845673 57758,6917.863,95.437,540.633,538.823,0.0
52299.0,STARLINK-3759,PAYLOAD,2023-04-29 03:20:16,15.08839699,0.0001352,53.2153,112.778,75.4497,284.6645,-3.5332e-05,-8.5e-06,0.0,0 STARLINK-3759,1 52299U 22041AQ  23119.13907495 -.00000850  00000-0 -35332-4 0  9995,2 52299  53.2153 112.7780 0001352  75.4497 284.6645 15.08839699 57882,6917.881,95.438,540.682,538.811,0.0
